From: horizons@ssd.jpl.nasa.gov (Horizons Ephemeris System)
Subject: [Horizons] SMALL BODY #C(500@10)_T(304P/Ory) (1/1)
Date: March 1, 2021 at 1:23:06 PM PST

Automated mail xmit by MAIL_REQUEST, PID= 2301 Mon Mar  1 13:23:06 2021
++++++++++++++++++++++++++++++++ (part 1 of 1)  +++++++++++++++++++++++++++++++
*******************************************************************************
JPL/HORIZONS                      304P/Ory                 2021-Mar-01 13:23:06
Rec #:90001217 (+COV) Soln.date: 2021-Jan-30_21:13:02   # obs: 1489 (2002-2021)

IAU76/J2000 helio. ecliptic osc. elements (au, days, deg., period=Julian yrs):

 EPOCH=  2455755.5 ! 2011-Jul-13.0000000 (TDB)    RMSW= n.a.
  EC= .5741720801836588   QR= 1.381386773786673   TP= 2454759.1909599821
  OM= 60.68209500795041   W= 329.6596933664369    IN= 2.755644377100694
  A= 3.244002352834128    MA= 168.0646610739493   ADIST= 5.106617931881583
  PER= 5.8429202025557    N= .168687274           ANGMOM= .025366771
  DAN= 1.45402            DDN= 4.31058            L= 30.3706903
  B= -1.391572            MOID= .38858601         TP= 2008-Oct-19.6909599821

Comet physical (GM= km^3/s^2; RAD= km):
  GM= n.a.                RAD= n.a.
  M1=  15.      M2=  n.a.     k1=  15.25  k2= n.a.     PHCOF= n.a.

Comet non-gravitational force model (AMRAT=m^2/kg;A1-A3=au/d^2;DT=days;R0=au):
  AMRAT=  0.                                      DT=  0.
  A1= 2.455435879529E-10  A2= 2.606059610844E-10  A3= 0.
Standard model:
  ALN=  .1112620426   NK=  4.6142   NM=  2.15     NN=  5.093    R0=  2.808

COMET comments 
1: soln ref.= JPL#65, data arc: 2002-10-04 to 2021-01-18
2: k1=15.25;
*******************************************************************************


*******************************************************************************
Ephemeris / MAIL_REQUEST Mon Mar  1 13:23:06 2021 Pasadena, USA  / Horizons
*******************************************************************************
Target body name: 304P/Ory                        {source: JPL#65}
Center body name: Sun (10)                        {source: DE431}
Center-site name: BODY CENTER
*******************************************************************************
Start time      : A.D. 1990-Jan-01 00:00:00.0000 TDB
Stop  time      : A.D. 2020-Dec-31 00:00:00.0000 TDB
Step-size       : 10080 minutes
*******************************************************************************
Center geodetic : 0.00000000,0.00000000,0.0000000 {E-lon(deg),Lat(deg),Alt(km)}
Center cylindric: 0.00000000,0.00000000,0.0000000 {E-lon(deg),Dxy(km),Dz(km)}
Center radii    : 696000.0 x 696000.0 x 696000.0 k{Equator, meridian, pole}    
Small perturbers: Yes                             {source: SB431-N16}
Output units    : AU-D
Output type     : GEOMETRIC cartesian states
Output format   : 6 (LT, range, and range-rate)
Reference frame : Ecliptic of J2000.0
*******************************************************************************
Initial IAU76/J2000 heliocentric ecliptic osculating elements (au, days, deg.):
 EPOCH=  2455755.5 ! 2011-Jul-13.0000000 (TDB)    RMSW= n.a.                  
  EC= .5741720801836588   QR= 1.381386773786673   TP= 2454759.1909599821      
  OM= 60.68209500795041   W= 329.6596933664369    IN= 2.755644377100694       
 Equivalent ICRF heliocentric equatorial cartesian coordinates (au, au/d):
  X=-4.556945999290569E+00  Y=-2.132161958097027E+00  Z=-7.741238250661355E-01
 VX= 1.797599605073912E-03 VY=-4.208155285360782E-03 VZ=-2.026570038581622E-03
Comet physical (GM= km^3/s^2; RAD= km):                                        
  GM= n.a.                RAD= n.a.                                           
  M1=  15.      M2=  n.a.     k1=  15.25  k2= n.a.     PHCOF= n.a.            
Comet non-gravitational force model (AMRAT=m^2/kg;A1-A3=au/d^2;DT=days;R0=au): 
  AMRAT=  0.                                      DT=  0.                     
  A1= 2.455435879529E-10  A2= 2.606059610844E-10  A3= 0.                      
Standard model:                                                               
  ALN=  .1112620426   NK=  4.6142   NM=  2.15     NN=  5.093    R0=  2.808    
*******************************************************************************
           JDTDB,            Calendar Date (TDB),                     LT,                     RG,                     RR,
**************************************************************************************************************************
$$SOE
2457132.500000000, A.D. 2015-Apr-20 00:00:00.0000,  1.530170645938707E-02,  2.649408344199625E+00,  6.361758021265768E-03,
2457139.500000000, A.D. 2015-Apr-27 00:00:00.0000,  1.555782455938332E-02,  2.693753818544699E+00,  6.308023942607587E-03,
2457146.500000000, A.D. 2015-May-04 00:00:00.0000,  1.581172947082661E-02,  2.737716091170734E+00,  6.252322189735189E-03,
2457153.500000000, A.D. 2015-May-11 00:00:00.0000,  1.606334749968223E-02,  2.781282402351157E+00,  6.194936360510952E-03,
2457160.500000000, A.D. 2015-May-18 00:00:00.0000,  1.631261570897624E-02,  2.824441854886734E+00,  6.136115839930379E-03,
2457167.500000000, A.D. 2015-May-25 00:00:00.0000,  1.655948063363567E-02,  2.867185191587045E+00,  6.076080525589223E-03,
2457174.500000000, A.D. 2015-Jun-01 00:00:00.0000,  1.680389716733858E-02,  2.909504602534546E+00,  6.015024581018752E-03,
2457181.500000000, A.D. 2015-Jun-08 00:00:00.0000,  1.704582758563285E-02,  2.951393555942834E+00,  5.953119493365707E-03,
2457188.500000000, A.D. 2015-Jun-15 00:00:00.0000,  1.728524068372625E-02,  2.992846648869617E+00,  5.890516713808289E-03,
2457195.500000000, A.D. 2015-Jun-22 00:00:00.0000,  1.752211101423362E-02,  3.033859475236742E+00,  5.827349968589481E-03,
2457202.500000000, A.D. 2015-Jun-29 00:00:00.0000,  1.775641821190883E-02,  3.074428508911146E+00,  5.763737245542648E-03,
2457209.500000000, A.D. 2015-Jul-06 00:00:00.0000,  1.798814639081038E-02,  3.114550999327326E+00,  5.699782366169550E-03,
2457216.500000000, A.D. 2015-Jul-13 00:00:00.0000,  1.821728359477462E-02,  3.154224876339716E+00,  5.635576080453224E-03,
2457223.500000000, A.D. 2015-Jul-20 00:00:00.0000,  1.844382129755454E-02,  3.193448663674412E+00,  5.571197788101969E-03,
2457230.500000000, A.D. 2015-Jul-27 00:00:00.0000,  1.866775401332708E-02,  3.232221411490594E+00,  5.506719029829964E-03,
2457237.500000000, A.D. 2015-Aug-03 00:00:00.0000,  1.888907900816083E-02,  3.270542646422712E+00,  5.442204111306665E-03,
2457244.500000000, A.D. 2015-Aug-10 00:00:00.0000,  1.910779597504989E-02,  3.308412315314342E+00,  5.377708770488519E-03,
2457251.500000000, A.D. 2015-Aug-17 00:00:00.0000,  1.932390670230001E-02,  3.345830727801026E+00,  5.313281194281141E-03,
2457258.500000000, A.D. 2015-Aug-24 00:00:00.0000,  1.953741479804012E-02,  3.382798508610926E+00,  5.248963403759820E-03,
2457265.500000000, A.D. 2015-Aug-31 00:00:00.0000,  1.974832545982847E-02,  3.419316557673349E+00,  5.184792123260284E-03,
2457272.500000000, A.D. 2015-Sep-07 00:00:00.0000,  1.995664527352102E-02,  3.455386015293911E+00,  5.120799400512114E-03,
2457279.500000000, A.D. 2015-Sep-14 00:00:00.0000,  2.016238203498463E-02,  3.491008231285117E+00,  5.057013128015441E-03,
2457286.500000000, A.D. 2015-Sep-21 00:00:00.0000,  2.036554459144413E-02,  3.526184737496457E+00,  4.993457491014709E-03,
2457293.500000000, A.D. 2015-Sep-28 00:00:00.0000,  2.056614269869791E-02,  3.560917223092060E+00,  4.930153286121454E-03,
2457300.500000000, A.D. 2015-Oct-05 00:00:00.0000,  2.076418688572111E-02,  3.595207511107461E+00,  4.867117929420682E-03,
2457307.500000000, A.D. 2015-Oct-12 00:00:00.0000,  2.095968831269708E-02,  3.629057533868505E+00,  4.804365241214344E-03,
2457314.500000000, A.D. 2015-Oct-19 00:00:00.0000,  2.115265864426187E-02,  3.662469311044316E+00,  4.741906829976313E-03,
2457321.500000000, A.D. 2015-Oct-26 00:00:00.0000,  2.134311001550117E-02,  3.695444943759851E+00,  4.679754483136640E-03,
2457328.500000000, A.D. 2015-Nov-02 00:00:00.0000,  2.153105502067339E-02,  3.727986612643353E+00,  4.617918682592815E-03,
2457335.500000000, A.D. 2015-Nov-09 00:00:00.0000,  2.171650662390192E-02,  3.760096562363205E+00,  4.556407267525895E-03,
2457342.500000000, A.D. 2015-Nov-16 00:00:00.0000,  2.189947806374039E-02,  3.791777085103914E+00,  4.495226115277447E-03,
2457349.500000000, A.D. 2015-Nov-23 00:00:00.0000,  2.207998278772574E-02,  3.823030509234323E+00,  4.434379751848207E-03,
2457356.500000000, A.D. 2015-Nov-30 00:00:00.0000,  2.225803440388337E-02,  3.853859190910991E+00,  4.373871620722240E-03,
2457363.500000000, A.D. 2015-Dec-07 00:00:00.0000,  2.243364664013345E-02,  3.884265507049613E+00,  4.313704230148015E-03,
2457370.500000000, A.D. 2015-Dec-14 00:00:00.0000,  2.260683330879851E-02,  3.914251849179701E+00,  4.253879263362211E-03,
2457377.500000000, A.D. 2015-Dec-21 00:00:00.0000,  2.277760827485692E-02,  3.943820617947840E+00,  4.194397646428258E-03,
2457384.500000000, A.D. 2015-Dec-28 00:00:00.0000,  2.294598542451441E-02,  3.972974217676020E+00,  4.135259464346174E-03,
2457391.500000000, A.D. 2016-Jan-04 00:00:00.0000,  2.311197862317509E-02,  4.001715049084547E+00,  4.076463488143862E-03,
2457398.500000000, A.D. 2016-Jan-11 00:00:00.0000,  2.327560165234542E-02,  4.030045498367289E+00,  4.018006896430761E-03,
2457405.500000000, A.D. 2016-Jan-18 00:00:00.0000,  2.343686817909914E-02,  4.057967931904712E+00,  3.959887357527057E-03,
2457412.500000000, A.D. 2016-Jan-25 00:00:00.0000,  2.359579181387767E-02,  4.085484706271698E+00,  3.902104164471912E-03,
2457419.500000000, A.D. 2016-Feb-01 00:00:00.0000,  2.375238613147383E-02,  4.112598171870756E+00,  3.844655924492256E-03,
2457426.500000000, A.D. 2016-Feb-08 00:00:00.0000,  2.390666462282729E-02,  4.139310664585688E+00,  3.787539965691260E-03,
2457433.500000000, A.D. 2016-Feb-15 00:00:00.0000,  2.405864065539538E-02,  4.165624498919978E+00,  3.730752937343007E-03,
